[
    {
        "Altitude(m)": 559726.6554520376,
        "Argument of Periapsis(deg)": 0.0,
        "Eccentricity": 0.0,
        "Inclination(deg)": 53.0,
        "Latitude(deg)": 52.38317625702989,
        "Longitude(deg)": -21.517711390791646,
        "Mean Anomaly(deg)": -261.8182,
        "RAAN(deg)": 335.0,
        "Satellite Name": "Starlink Shell 1 1480",
        "Satellite Number": 1480,
        "Semi-Major Axis(m)": 6931778.249405717,
        "Time(s)": 0
    },
    {
        "Altitude(m)": 559699.215769806,
        "Argument of Periapsis(deg)": 0.00034857847951123687,
        "Eccentricity": 0.0,
        "Inclination(deg)": 53.0,
        "Latitude(deg)": 52.262418079903014,
        "Longitude(deg)": -20.555384107651857,
        "Mean Anomaly(deg)": -261.19136879644327,
        "RAAN(deg)": 334.99948122992254,
        "Satellite Name": "Starlink Shell 1 1480",
        "Satellite Number": 1480,
        "Semi-Major Axis(m)": 6931778.249405717,
        "Time(s)": 10
    },
    {
        "Altitude(m)": 559669.8283531851,
        "Argument of Periapsis(deg)": 0.0006971569590224737,
        "Eccentricity": 0.0,
        "Inclination(deg)": 53.0,
        "Latitude(deg)": 52.13317796932438,
        "Longitude(deg)": -19.59868037566315,
        "Mean Anomaly(deg)": -260.5645375928866,
        "RAAN(deg)": 334.9989624598451,
        "Satellite Name": "Starlink Shell 1 1480",
        "Satellite Number": 1480,
        "Semi-Major Axis(m)": 6931778.249405717,
        "Time(s)": 20
    },
    {
        "Altitude(m)": 559638.5109342029,
        "Argument of Periapsis(deg)": 0.0010457354385337105,
        "Eccentricity": 0.0,
        "Inclination(deg)": 53.0,
        "Latitude(deg)": 51.9955433994372,
        "Longitude(deg)": -18.64791746452234,
        "Mean Anomaly(deg)": -259.93770638932983,
        "RAAN(deg)": 334.9984436897676,
        "Satellite Name": "Starlink Shell 1 1480",
        "Satellite Number": 1480,
        "Semi-Major Axis(m)": 6931778.249405717,
        "Time(s)": 30
    },
    {
        "Altitude(m)": 559605.2824179305,
        "Argument of Periapsis(deg)": 0.0013943139180449475,
        "Eccentricity": 0.0,
        "Inclination(deg)": 53.0,
        "Latitude(deg)": 51.84960623320828,
        "Longitude(deg)": -17.703396949554723,
        "Mean Anomaly(deg)": -259.3108751857731,
        "RAAN(deg)": 334.9979249196901,
        "Satellite Name": "Starlink Shell 1 1480",
        "Satellite Number": 1480,
        "Semi-Major Axis(m)": 6931778.249405717,
        "Time(s)": 40
    },
    {
        "Altitude(m)": 559570.1628732256,
        "Argument of Periapsis(deg)": 0.0017428923975561844,
        "Eccentricity": 0.0,
        "Inclination(deg)": 53.0,
        "Latitude(deg)": 51.69546244476015,
        "Longitude(deg)": -16.76540530237907,
        "Mean Anomaly(deg)": -258.68404398221645,
        "RAAN(deg)": 334.9974061496127,
        "Satellite Name": "Starlink Shell 1 1480",
        "Satellite Number": 1480,
        "Semi-Major Axis(m)": 6931778.249405717,
        "Time(s)": 50
    },
    {
        "Altitude(m)": 559533.1735229562,
        "Argument of Periapsis(deg)": 0.002091470877067421,
        "Eccentricity": 0.0,
        "Inclination(deg)": 53.0,
        "Latitude(deg)": 51.53321183690192,
        "Longitude(deg)": -15.834213055084348,
        "Mean Anomaly(deg)": -258.05721277865973,
        "RAAN(deg)": 334.9968873795352,
        "Satellite Name": "Starlink Shell 1 1480",
        "Satellite Number": 1480,
        "Semi-Major Axis(m)": 6931778.249405717,
        "Time(s)": 60
    },
    {
        "Altitude(m)": 559494.3367335938,
        "Argument of Periapsis(deg)": 0.0024400493565786582,
        "Eccentricity": 0.0,
        "Inclination(deg)": 53.0,
        "Latitude(deg)": 51.362957755605045,
        "Longitude(deg)": -14.910074049232678,
        "Mean Anomaly(deg)": -257.43038157510296,
        "RAAN(deg)": 334.9963686094577,
        "Satellite Name": "Starlink Shell 1 1480",
        "Satellite Number": 1480,
        "Semi-Major Axis(m)": 6931778.249405717,
        "Time(s)": 70
    },
    {
        "Altitude(m)": 559453.6760042884,
        "Argument of Periapsis(deg)": 0.002788627836089895,
        "Eccentricity": 0.0,
        "Inclination(deg)": 53.0,
        "Latitude(deg)": 51.184806803096855,
        "Longitude(deg)": -13.993226280207885,
        "Mean Anomaly(deg)": -256.8035503715463,
        "RAAN(deg)": 334.99584983938024,
        "Satellite Name": "Starlink Shell 1 1480",
        "Satellite Number": 1480,
        "Semi-Major Axis(m)": 6931778.249405717,
        "Time(s)": 80
    },
    {
        "Altitude(m)": 559411.2159553568,
        "Argument of Periapsis(deg)": 0.0031372063156011316,
        "Eccentricity": 0.0,
        "Inclination(deg)": 53.0,
        "Latitude(deg)": 50.99886855117553,
        "Longitude(deg)": -13.0838913081692,
        "Mean Anomaly(deg)": -256.17671916798963,
        "RAAN(deg)": 334.9953310693028,
        "Satellite Name": "Starlink Shell 1 1480",
        "Satellite Number": 1480,
        "Semi-Major Axis(m)": 6931778.249405717,
        "Time(s)": 90
    },
    {
        "Altitude(m)": 559366.9823162399,
        "Argument of Periapsis(deg)": 0.0034857847951123688,
        "Eccentricity": 0.0,
        "Inclination(deg)": 53.0,
        "Latitude(deg)": 50.80525525625485,
        "Longitude(deg)": -12.182273744933855,
        "Mean Anomaly(deg)": -255.54988796443283,
        "RAAN(deg)": 334.9948122992253,
        "Satellite Name": "Starlink Shell 1 1480",
        "Satellite Number": 1480,
        "Semi-Major Axis(m)": 6931778.249405717,
        "Time(s)": 100
    },
    {
        "Altitude(m)": 559321.001912885,
        "Argument of Periapsis(deg)": 0.003834363274623606,
        "Eccentricity": 0.0,
        "Inclination(deg)": 53.0,
        "Latitude(deg)": 50.60408157754594,
        "Longitude(deg)": -11.288562325627426,
        "Mean Anomaly(deg)": -254.92305676087614,
        "RAAN(deg)": 334.99429352914785,
        "Satellite Name": "Starlink Shell 1 1480",
        "Satellite Number": 1480,
        "Semi-Major Axis(m)": 6931778.249405717,
        "Time(s)": 110
    },
    {
        "Altitude(m)": 559273.3026546007,
        "Argument of Periapsis(deg)": 0.004182941754134842,
        "Eccentricity": 0.0,
        "Inclination(deg)": 53.0,
        "Latitude(deg)": 50.39546429968644,
        "Longitude(deg)": -10.402929534936519,
        "Mean Anomaly(deg)": -254.29622555731947,
        "RAAN(deg)": 334.99377475907033,
        "Satellite Name": "Starlink Shell 1 1480",
        "Satellite Number": 1480,
        "Semi-Major Axis(m)": 6931778.249405717,
        "Time(s)": 120
    },
    {
        "Altitude(m)": 559223.9135203762,
        "Argument of Periapsis(deg)": 0.004531520233646079,
        "Eccentricity": 0.0,
        "Inclination(deg)": 53.0,
        "Latitude(deg)": 50.17952206100412,
        "Longitude(deg)": -9.525531296093618,
        "Mean Anomaly(deg)": -253.6693943537627,
        "RAAN(deg)": 334.99325598899287,
        "Satellite Name": "Starlink Shell 1 1480",
        "Satellite Number": 1480,
        "Semi-Major Axis(m)": 6931778.249405717,
        "Time(s)": 130
    },
    {
        "Altitude(m)": 559172.8645446431,
        "Argument of Periapsis(deg)": 0.0048800987131573164,
        "Eccentricity": 0.0,
        "Inclination(deg)": 53.0,
        "Latitude(deg)": 49.95637508848641,
        "Longitude(deg)": -8.656508230495447,
        "Mean Anomaly(deg)": -253.04256315020595,
        "RAAN(deg)": 334.9927372189154,
        "Satellite Name": "Starlink Shell 1 1480",
        "Satellite Number": 1480,
        "Semi-Major Axis(m)": 6931778.249405717,
        "Time(s)": 140
    },
    {
        "Altitude(m)": 559120.1868025415,
        "Argument of Periapsis(deg)": 0.005228677192668553,
        "Eccentricity": 0.0,
        "Inclination(deg)": 53.0,
        "Latitude(deg)": 49.72614494041617,
        "Longitude(deg)": -7.7959854570851315,
        "Mean Anomaly(deg)": -252.4157319466493,
        "RAAN(deg)": 334.99221844883795,
        "Satellite Name": "Starlink Shell 1 1480",
        "Satellite Number": 1480,
        "Semi-Major Axis(m)": 6931778.249405717,
        "Time(s)": 150
    },
    {
        "Altitude(m)": 559065.9123946391,
        "Argument of Periapsis(deg)": 0.00557725567217979,
        "Eccentricity": 0.0,
        "Inclination(deg)": 53.0,
        "Latitude(deg)": 49.48895425750437,
        "Longitude(deg)": -6.944072439147599,
        "Mean Anomaly(deg)": -251.7889007430926,
        "RAAN(deg)": 334.9916996787604,
        "Satellite Name": "Starlink Shell 1 1480",
        "Satellite Number": 1480,
        "Semi-Major Axis(m)": 6931778.249405717,
        "Time(s)": 160
    },
    {
        "Altitude(m)": 559010.0744311569,
        "Argument of Periapsis(deg)": 0.0059258341516910265,
        "Eccentricity": 0.0,
        "Inclination(deg)": 53.0,
        "Latitude(deg)": 49.244926523235165,
        "Longitude(deg)": -6.10086438616725,
        "Mean Anomaly(deg)": -251.16206953953585,
        "RAAN(deg)": 334.991180908683,
        "Satellite Name": "Starlink Shell 1 1480",
        "Satellite Number": 1480,
        "Semi-Major Axis(m)": 6931778.249405717,
        "Time(s)": 170
    },
    {
        "Altitude(m)": 558952.7070156662,
        "Argument of Periapsis(deg)": 0.006274412631202263,
        "Eccentricity": 0.0,
        "Inclination(deg)": 53.0,
        "Latitude(deg)": 48.994185834028045,
        "Longitude(deg)": -5.266442179806507,
        "Mean Anomaly(deg)": -250.53523833597913,
        "RAAN(deg)": 334.9906621386055,
        "Satellite Name": "Starlink Shell 1 1480",
        "Satellite Number": 1480,
        "Semi-Major Axis(m)": 6931778.249405717,
        "Time(s)": 180
    }
]